<?xml version="1.0" encoding="UTF-8"?>
<ndm xmlns:xsi="http://www.w3.org/2001/XMLSchema-instance" xsi:noNamespaceSchemaLocation="https://sanaregistry.org/r/ndmxml_unqualified/ndmxml-2.0.0-master-2.0.xsd">
<omm id="CCSDS_OMM_VERS" version="2.0">
<header><CREATION_DATE/><ORIGINATOR/></header><body><segment><metadata><OBJECT_NAME>COSMOS 2251 DEB</OBJECT_NAME><OBJECT_ID>1993-036AQA</OBJECT_ID><CENTER_NAME>EARTH</CENTER_NAME><REF_FRAME>TEME</REF_FRAME><TIME_SYSTEM>UTC</TIME_SYSTEM><MEAN_ELEMENT_THEORY>SGP4</MEAN_ELEMENT_THEORY></metadata><data><meanElements><EPOCH>2025-11-20T21:58:34.994784</EPOCH><MEAN_MOTION>14.71264537</MEAN_MOTION><ECCENTRICITY>.0034616</ECCENTRICITY><INCLINATION>74.2759</INCLINATION><RA_OF_ASC_NODE>177.6190</RA_OF_ASC_NODE><ARG_OF_PERICENTER>139.9318</ARG_OF_PERICENTER><MEAN_ANOMALY>220.4419</MEAN_ANOMALY></meanElements><tleParameters><EPHEMERIS_TYPE>0</EPHEMERIS_TYPE><CLASSIFICATION_TYPE>U</CLASSIFICATION_TYPE><NORAD_CAT_ID>35705</NORAD_CAT_ID><ELEMENT_SET_NO>999</ELEMENT_SET_NO><REV_AT_EPOCH>85605</REV_AT_EPOCH><BSTAR>.23819E-2</BSTAR><MEAN_MOTION_DOT>.14843E-3</MEAN_MOTION_DOT><MEAN_MOTION_DDOT>0</MEAN_MOTION_DDOT></tleParameters></data></segment></body></omm>
<omm id="CCSDS_OMM_VERS" version="2.0">
<header><CREATION_DATE/><ORIGINATOR/></header><body><segment><metadata><OBJECT_NAME>COSMOS 2251 DEB</OBJECT_NAME><OBJECT_ID>1993-036AQB</OBJECT_ID><CENTER_NAME>EARTH</CENTER_NAME><REF_FRAME>TEME</REF_FRAME><TIME_SYSTEM>UTC</TIME_SYSTEM><MEAN_ELEMENT_THEORY>SGP4</MEAN_ELEMENT_THEORY></metadata><data><meanElements><EPOCH>2025-11-13T04:00:59.051232</EPOCH><MEAN_MOTION>13.65781400</MEAN_MOTION><ECCENTRICITY>.0343859</ECCENTRICITY><INCLINATION>73.8864</INCLINATION><RA_OF_ASC_NODE>111.6601</RA_OF_ASC_NODE><ARG_OF_PERICENTER>166.7785</ARG_OF_PERICENTER><MEAN_ANOMALY>194.2635</MEAN_ANOMALY></meanElements><tleParameters><EPHEMERIS_TYPE>0</EPHEMERIS_TYPE><CLASSIFICATION_TYPE>U</CLASSIFICATION_TYPE><NORAD_CAT_ID>35706</NORAD_CAT_ID><ELEMENT_SET_NO>999</ELEMENT_SET_NO><REV_AT_EPOCH>61658</REV_AT_EPOCH><BSTAR>.41309E-2</BSTAR><MEAN_MOTION_DOT>.5058E-4</MEAN_MOTION_DOT><MEAN_MOTION_DDOT>0</MEAN_MOTION_DDOT></tleParameters></data></segment></body></omm>
<omm id="CCSDS_OMM_VERS" version="2.0">
<header><CREATION_DATE/><ORIGINATOR/></header><body><segment><metadata><OBJECT_NAME>COSMOS 2251 DEB</OBJECT_NAME><OBJECT_ID>1993-036AQG</OBJECT_ID><CENTER_NAME>EARTH</CENTER_NAME><REF_FRAME>TEME</REF_FRAME><TIME_SYSTEM>UTC</TIME_SYSTEM><MEAN_ELEMENT_THEORY>SGP4</MEAN_ELEMENT_THEORY></metadata><data><meanElements><EPOCH>2025-11-20T12:41:46.749120</EPOCH><MEAN_MOTION>14.63695564</MEAN_MOTION><ECCENTRICITY>.00845635</ECCENTRICITY><INCLINATION>74.0470</INCLINATION><RA_OF_ASC_NODE>263.0719</RA_OF_ASC_NODE><ARG_OF_PERICENTER>9.4967</ARG_OF_PERICENTER><MEAN_ANOMALY>350.7774</MEAN_ANOMALY></meanElements><tleParameters><EPHEMERIS_TYPE>0</EPHEMERIS_TYPE><CLASSIFICATION_TYPE>U</CLASSIFICATION_TYPE><NORAD_CAT_ID>35711</NORAD_CAT_ID><ELEMENT_SET_NO>999</ELEMENT_SET_NO><REV_AT_EPOCH>87446</REV_AT_EPOCH><BSTAR>.36461809E-3</BSTAR><MEAN_MOTION_DOT>.1967E-4</MEAN_MOTION_DOT><MEAN_MOTION_DDOT>0</MEAN_MOTION_DDOT></tleParameters></data></segment></body></omm>
<omm id="CCSDS_OMM_VERS" version="2.0">
<header><CREATION_DATE/><ORIGINATOR/></header><body><segment><metadata><OBJECT_NAME>COSMOS 2251 DEB</OBJECT_NAME><OBJECT_ID>1993-036AQM</OBJECT_ID><CENTER_NAME>EARTH</CENTER_NAME><REF_FRAME>TEME</REF_FRAME><TIME_SYSTEM>UTC</TIME_SYSTEM><MEAN_ELEMENT_THEORY>SGP4</MEAN_ELEMENT_THEORY></metadata><data><meanElements><EPOCH>2025-11-20T01:12:08.167392</EPOCH><MEAN_MOTION>14.60046201</MEAN_MOTION><ECCENTRICITY>.00882065</ECCENTRICITY><INCLINATION>73.9941</INCLINATION><RA_OF_ASC_NODE>237.6166</RA_OF_ASC_NODE><ARG_OF_PERICENTER>84.6571</ARG_OF_PERICENTER><MEAN_ANOMALY>292.8402</MEAN_ANOMALY></meanElements><tleParameters><EPHEMERIS_TYPE>0</EPHEMERIS_TYPE><CLASSIFICATION_TYPE>U</CLASSIFICATION_TYPE><NORAD_CAT_ID>35716</NORAD_CAT_ID><ELEMENT_SET_NO>999</ELEMENT_SET_NO><REV_AT_EPOCH>87296</REV_AT_EPOCH><BSTAR>.14169476E-3</BSTAR><MEAN_MOTION_DOT>.687E-5</MEAN_MOTION_DOT><MEAN_MOTION_DDOT>0</MEAN_MOTION_DDOT></tleParameters></data></segment></body></omm>
<omm id="CCSDS_OMM_VERS" version="2.0">
<header><CREATION_DATE/><ORIGINATOR/></header><body><segment><metadata><OBJECT_NAME>COSMOS 2251 DEB</OBJECT_NAME><OBJECT_ID>1993-036AQN</OBJECT_ID><CENTER_NAME>EARTH</CENTER_NAME><REF_FRAME>TEME</REF_FRAME><TIME_SYSTEM>UTC</TIME_SYSTEM><MEAN_ELEMENT_THEORY>SGP4</MEAN_ELEMENT_THEORY></metadata><data><meanElements><EPOCH>2025-11-20T02:19:42.985056</EPOCH><MEAN_MOTION>14.38259242</MEAN_MOTION><ECCENTRICITY>.00762455</ECCENTRICITY><INCLINATION>74.1612</INCLINATION><RA_OF_ASC_NODE>258.9085</RA_OF_ASC_NODE><ARG_OF_PERICENTER>125.8129</ARG_OF_PERICENTER><MEAN_ANOMALY>235.0143</MEAN_ANOMALY></meanElements><tleParameters><EPHEMERIS_TYPE>0</EPHEMERIS_TYPE><CLASSIFICATION_TYPE>U</CLASSIFICATION_TYPE><NORAD_CAT_ID>35717</NORAD_CAT_ID><ELEMENT_SET_NO>999</ELEMENT_SET_NO><REV_AT_EPOCH>73774</REV_AT_EPOCH><BSTAR>.10708512E-2</BSTAR><MEAN_MOTION_DOT>.3344E-4</MEAN_MOTION_DOT><MEAN_MOTION_DDOT>0</MEAN_MOTION_DDOT></tleParameters></data></segment></body></omm>
<omm id="CCSDS_OMM_VERS" version="2.0">
<header><CREATION_DATE/><ORIGINATOR/></header><body><segment><metadata><OBJECT_NAME>COSMOS 2251 DEB</OBJECT_NAME><OBJECT_ID>1993-036AQP</OBJECT_ID><CENTER_NAME>EARTH</CENTER_NAME><REF_FRAME>TEME</REF_FRAME><TIME_SYSTEM>UTC</TIME_SYSTEM><MEAN_ELEMENT_THEORY>SGP4</MEAN_ELEMENT_THEORY></metadata><data><meanElements><EPOCH>2025-11-19T20:35:54.609216</EPOCH><MEAN_MOTION>14.68125446</MEAN_MOTION><ECCENTRICITY>.00129828</ECCENTRICITY><INCLINATION>74.0301</INCLINATION><RA_OF_ASC_NODE>174.2266</RA_OF_ASC_NODE><ARG_OF_PERICENTER>225.2811</ARG_OF_PERICENTER><MEAN_ANOMALY>134.7303</MEAN_ANOMALY></meanElements><tleParameters><EPHEMERIS_TYPE>0</EPHEMERIS_TYPE><CLASSIFICATION_TYPE>U</CLASSIFICATION_TYPE><NORAD_CAT_ID>35718</NORAD_CAT_ID><ELEMENT_SET_NO>999</ELEMENT_SET_NO><REV_AT_EPOCH>65504</REV_AT_EPOCH><BSTAR>.11612034E-2</BSTAR><MEAN_MOTION_DOT>.6658E-4</MEAN_MOTION_DOT><MEAN_MOTION_DDOT>0</MEAN_MOTION_DDOT></tleParameters></data></segment></body></omm>
<omm id="CCSDS_OMM_VERS" version="2.0">
<header><CREATION_DATE/><ORIGINATOR/></header><body><segment><metadata><OBJECT_NAME>COSMOS 2251 DEB</OBJECT_NAME><OBJECT_ID>1993-036AQS</OBJECT_ID><CENTER_NAME>EARTH</CENTER_NAME><REF_FRAME>TEME</REF_FRAME><TIME_SYSTEM>UTC</TIME_SYSTEM><MEAN_ELEMENT_THEORY>SGP4</MEAN_ELEMENT_THEORY></metadata><data><meanElements><EPOCH>2025-11-15T11:21:16.282368</EPOCH><MEAN_MOTION>14.34018933</MEAN_MOTION><ECCENTRICITY>.01460234</ECCENTRICITY><INCLINATION>73.9508</INCLINATION><RA_OF_ASC_NODE>227.9285</RA_OF_ASC_NODE><ARG_OF_PERICENTER>19.8322</ARG_OF_PERICENTER><MEAN_ANOMALY>340.8424</MEAN_ANOMALY></meanElements><tleParameters><EPHEMERIS_TYPE>0</EPHEMERIS_TYPE><CLASSIFICATION_TYPE>U</CLASSIFICATION_TYPE><NORAD_CAT_ID>35721</NORAD_CAT_ID><ELEMENT_SET_NO>999</ELEMENT_SET_NO><REV_AT_EPOCH>57398</REV_AT_EPOCH><BSTAR>.24775519E-2</BSTAR><MEAN_MOTION_DOT>.778E-4</MEAN_MOTION_DOT><MEAN_MOTION_DDOT>0</MEAN_MOTION_DDOT></tleParameters></data></segment></body></omm>
<omm id="CCSDS_OMM_VERS" version="2.0">
<header><CREATION_DATE/><ORIGINATOR/></header><body><segment><metadata><OBJECT_NAME>COSMOS 2251 DEB</OBJECT_NAME><OBJECT_ID>1993-036AQV</OBJECT_ID><CENTER_NAME>EARTH</CENTER_NAME><REF_FRAME>TEME</REF_FRAME><TIME_SYSTEM>UTC</TIME_SYSTEM><MEAN_ELEMENT_THEORY>SGP4</MEAN_ELEMENT_THEORY></metadata><data><meanElements><EPOCH>2025-11-20T07:44:57.004800</EPOCH><MEAN_MOTION>14.58125403</MEAN_MOTION><ECCENTRICITY>.00595246</ECCENTRICITY><INCLINATION>74.0327</INCLINATION><RA_OF_ASC_NODE>345.3431</RA_OF_ASC_NODE><ARG_OF_PERICENTER>145.5436</ARG_OF_PERICENTER><MEAN_ANOMALY>214.9612</MEAN_ANOMALY></meanElements><tleParameters><EPHEMERIS_TYPE>0</EPHEMERIS_TYPE><CLASSIFICATION_TYPE>U</CLASSIFICATION_TYPE><NORAD_CAT_ID>35724</NORAD_CAT_ID><ELEMENT_SET_NO>999</ELEMENT_SET_NO><REV_AT_EPOCH>87202</REV_AT_EPOCH><BSTAR>.21716433E-3</BSTAR><MEAN_MOTION_DOT>.995E-5</MEAN_MOTION_DOT><MEAN_MOTION_DDOT>0</MEAN_MOTION_DDOT></tleParameters></data></segment></body></omm>
<omm id="CCSDS_OMM_VERS" version="2.0">
<header><CREATION_DATE/><ORIGINATOR/></header><body><segment><metadata><OBJECT_NAME>COSMOS 2251 DEB</OBJECT_NAME><OBJECT_ID>1993-036ARD</OBJECT_ID><CENTER_NAME>EARTH</CENTER_NAME><REF_FRAME>TEME</REF_FRAME><TIME_SYSTEM>UTC</TIME_SYSTEM><MEAN_ELEMENT_THEORY>SGP4</MEAN_ELEMENT_THEORY></metadata><data><meanElements><EPOCH>2025-11-18T03:06:53.345376</EPOCH><MEAN_MOTION>14.64754717</MEAN_MOTION><ECCENTRICITY>.00760599</ECCENTRICITY><INCLINATION>74.0380</INCLINATION><RA_OF_ASC_NODE>263.3659</RA_OF_ASC_NODE><ARG_OF_PERICENTER>27.6254</ARG_OF_PERICENTER><MEAN_ANOMALY>332.8922</MEAN_ANOMALY></meanElements><tleParameters><EPHEMERIS_TYPE>0</EPHEMERIS_TYPE><CLASSIFICATION_TYPE>U</CLASSIFICATION_TYPE><NORAD_CAT_ID>35759</NORAD_CAT_ID><ELEMENT_SET_NO>999</ELEMENT_SET_NO><REV_AT_EPOCH>65775</REV_AT_EPOCH><BSTAR>.54089324E-3</BSTAR><MEAN_MOTION_DOT>.2976E-4</MEAN_MOTION_DOT><MEAN_MOTION_DDOT>0</MEAN_MOTION_DDOT></tleParameters></data></segment></body></omm>

</ndm>
